NORAD_CAT_ID,OBJECT_NAME,OBJECT_TYPE,EPOCH,MEAN_MOTION,ECCENTRICITY,INCLINATION,RA_OF_ASC_NODE,ARG_OF_PERICENTER,MEAN_ANOMALY,BSTAR,MEAN_MOTION_DOT,MEAN_MOTION_DDOT,TLE_LINE0,TLE_LINE1,TLE_LINE2,SEMIMAJOR_AXIS,PERIOD,APOGEE,PERIGEE,DECAYED
53435.0,STARLINK-4542,PAYLOAD,2023-01-16 17:26:41,15.08867927,0.0001388,53.2147,217.3049,71.086,289.0282,-0.00084408,-0.00013707,0.0,0 STARLINK-4542,1 53435U 22097AZ  23016.72686350 -.00013707  00000-0 -84408-3 0  9996,2 53435  53.2147 217.3049 0001388  71.0860 289.0282 15.08867927 25003,6917.795,95.436,540.62,538.7,0.0
53435.0,STARLINK-4542,PAYLOAD,2023-01-17 06:09:46,15.08845609,0.0001220999999999,53.2148,214.9261,88.3458,271.7674,-0.00017422,-3.06e-05,0.0,0 STARLINK-4542,1 53435U 22097AZ  23017.25679328 -.00003060  00000-0 -17422-3 0  9995,2 53435  53.2148 214.9261 0001221  88.3458 271.7674 15.08845609 25087,6917.863,95.437,540.573,538.884,0.0
53435.0,STARLINK-4542,PAYLOAD,2023-01-17 12:31:20,15.088376,0.0001219,53.2148,213.7366,84.8985,275.2146,0.00017834,2.551e-05,0.0,0 STARLINK-4542,1 53435U 22097AZ  23017.52176019  .00002551  00000-0  17834-3 0  9993,2 53435  53.2148 213.7366 0001219  84.8985 275.2146 15.08837600 25583,6917.888000000001,95.438,540.596,538.909,0.0
53435.0,STARLINK-4542,PAYLOAD,2023-01-17 14:06:43,15.08838188,0.000122,53.2148,213.4392,84.9642,275.1489,0.00018241,2.616e-05,0.0,0 STARLINK-4542,1 53435U 22097AZ  23017.58800018  .00002616  00000-0  18241-3 0  9997,2 53435  53.2148 213.4392 0001220  84.9642 275.1489 15.08838188 25134,6917.886,95.438,540.595,538.9069999999999,0.0
53435.0,STARLINK-4542,PAYLOAD,2023-01-17 15:42:06,15.08838915,0.0001222,53.2147,213.1417,84.8798,275.2334,0.00018953,2.7300000000000003e-05,0.0,0 STARLINK-4542,1 53435U 22097AZ  23017.65424009  .00002730  00000-0  18953-3 0  9994,2 53435  53.2147 213.1417 0001222  84.8798 275.2334 15.08838915 25601,6917.884,95.438,540.594,538.903,0.0
53435.0,STARLINK-4542,PAYLOAD,2023-01-18 07:35:57,15.08843887,0.000125,53.2146,210.168,83.5747,276.5387,0.00015971,2.255e-05,0.0,0 STARLINK-4542,1 53435U 22097AZ  23018.31663838  .00002255  00000-0  15971-3 0  9992,2 53435  53.2146 210.1680 0001250  83.5747 276.5387 15.08843887 25707,6917.869000000001,95.437,540.5980000000001,538.869,0.0
53435.0,STARLINK-4542,PAYLOAD,2023-01-18 15:32:53,15.08840932,0.0001222,53.2146,208.681,83.7474,276.3658,0.00017959,2.572e-05,0.0,0 STARLINK-4542,1 53435U 22097AZ  23018.64784040  .00002572  00000-0  17959-3 0  9997,2 53435  53.2146 208.6810 0001222  83.7474 276.3658 15.08840932 25293,6917.878000000001,95.437,540.5880000000001,538.8969999999999,0.0
53435.0,STARLINK-4542,PAYLOAD,2023-01-18 20:19:02,15.0884534,0.0001193999999999,53.2147,207.7888,84.3247,275.7881,0.00022289,3.262e-05,0.0,0 STARLINK-4542,1 53435U 22097AZ  23018.84655824  .00003262  00000-0  22289-3 0  9995,2 53435  53.2147 207.7888 0001194  84.3247 275.7881 15.08845340 25785,6917.8640000000005,95.437,540.555,538.903,0.0
53435.0,STARLINK-4542,PAYLOAD,2023-01-19 13:48:17,15.08842568,0.0001236,53.2145,204.518,84.3195,275.7938,0.00011211,1.497e-05,0.0,0 STARLINK-4542,1 53435U 22097AZ  23019.57519897  .00001497  00000-0  11211-3 0  9996,2 53435  53.2145 204.5180 0001236  84.3195 275.7938 15.08842568 25896,6917.8730000000005,95.437,540.5930000000001,538.882,0.0
53435.0,STARLINK-4542,PAYLOAD,2023-01-19 18:34:26,15.08846463,0.0001209,53.2146,203.6258,85.9678,274.1452,0.00016158,2.285e-05,0.0,0 STARLINK-4542,1 53435U 22097AZ  23019.77391647  .00002285  00000-0  16158-3 0  9990,2 53435  53.2146 203.6258 0001209  85.9678 274.1452 15.08846463 25461,6917.861,95.437,540.562,538.889,0.0
53435.0,STARLINK-4542,PAYLOAD,2023-01-20 12:03:40,15.08843433,0.0001173,53.216,200.3548,88.8063,271.3064,9.0146e-05,1.147e-05,0.0,0 STARLINK-4542,1 53435U 22097AZ  23020.50255627  .00001147  00000-0  90146-4 0  9996,2 53435  53.2160 200.3548 0001173  88.8063 271.3064 15.08843433 26039,6917.87,95.437,540.5459999999999,538.923,0.0
53435.0,STARLINK-4542,PAYLOAD,2023-01-20 20:00:36,15.0884726,0.0001144,53.2163,198.8677,88.6974,271.415,9.5969e-05,1.24e-05,0.0,0 STARLINK-4542,1 53435U 22097AZ  23020.83375156  .00001240  00000-0  95969-4 0  9994,2 53435  53.2163 198.8677 0001144  88.6974 271.4150 15.08847260 25626,6917.858,95.437,540.515,538.932,0.0
53435.0,STARLINK-4542,PAYLOAD,2023-01-21 11:54:27,15.08849702,0.0001575999999999,53.2165,195.8936,90.3309,269.7864,-0.00018057,-3.161e-05,0.0,0 STARLINK-4542,1 53435U 22097AZ  23021.49615719 -.00003161  00000-0 -18057-3 0  9997,2 53435  53.2165 195.8936 0001576  90.3309 269.7864 15.08849702 25720,6917.851,95.437,540.806,538.625,0.0
53435.0,STARLINK-4542,PAYLOAD,2023-01-22 03:48:19,15.08829016,0.0001307,53.2171,192.9186,99.1718,260.9422,0.0001582,2.23e-05,0.0,0 STARLINK-4542,1 53435U 22097AZ  23022.15856209  .00002230  00000-0  15820-3 0  9991,2 53435  53.2171 192.9186 0001307  99.1718 260.9422 15.08829016 25825,6917.914000000001,95.438,540.683,538.875,0.0
53435.0,STARLINK-4542,PAYLOAD,2023-01-22 18:06:47,15.08843348,0.0001121,53.2166,190.2443,90.2133,269.8987,7.6589e-05,9.31e-06,0.0,0 STARLINK-4542,1 53435U 22097AZ  23022.75471442  .00000931  00000-0  76589-4 0  9995,2 53435  53.2166 190.2443 0001121  90.2133 269.8987 15.08843348 25911,6917.87,95.437,540.511,538.96,0.0
53435.0,STARLINK-4542,PAYLOAD,2023-01-23 03:39:06,15.0883617,0.0001010999999999,53.2159,188.4591,86.9327,273.1781,3.9267e-05,3.37e-06,0.0,0 STARLINK-4542,1 53435U 22097AZ  23023.15216007  .00000337  00000-0  39267-4 0  9996,2 53435  53.2159 188.4591 0001011  86.9327 273.1781 15.08836170 25972,6917.892,95.438,540.456,539.058,0.0
53435.0,STARLINK-4542,PAYLOAD,2023-01-24 09:51:26,15.08834398,9.09e-05,53.2158,182.8095,89.7006,270.409,7.0445e-05,8.33e-06,0.0,0 STARLINK-4542,1 53435U 22097AZ  23024.41072285  .00000833  00000-0  70445-4 0  9998,2 53435  53.2158 182.8095 0000909  89.7006 270.4090 15.08834398 26163,6917.898,95.438,540.391,539.134,0.0
53435.0,STARLINK-4542,PAYLOAD,2023-01-24 17:48:21,15.08846188,0.0001065,53.2161,181.3228,97.6197,262.4916,5.1326e-05,5.29e-06,0.0,0 STARLINK-4542,1 53435U 22097AZ  23024.74191621  .00000529  00000-0  51326-4 0  9999,2 53435  53.2161 181.3228 0001065  97.6197 262.4916 15.08846188 26216,6917.861,95.437,540.4630000000001,538.99,0.0
53435.0,STARLINK-4542,PAYLOAD,2023-01-25 03:20:40,15.08841617,0.0001010999999999,53.2163,179.5394,93.3674,266.7434,1.8639e-05,9e-08,0.0,0 STARLINK-4542,1 53435U 22097AZ  23025.13936006  .00000009  00000-0  18639-4 0  9990,2 53435  53.2163 179.5394 0001011  93.3674 266.7434 15.08841617 26275,6917.875,95.437,540.44,539.0409999999999,0.0
53435.0,STARLINK-4542,PAYLOAD,2023-01-25 11:17:36,15.08832738,0.0001132,53.2159,178.0521,95.2655,264.8467,1.0447e-05,-1.22e-06,0.0,0 STARLINK-4542,1 53435U 22097AZ  23025.47056701 -.00000122  00000-0  10447-4 0  9998,2 53435  53.2159 178.0521 0001132  95.2655 264.8467 15.08832738 26785,6917.903,95.438,540.5509999999999,538.984,0.0
53435.0,STARLINK-4542,PAYLOAD,2023-01-25 16:03:45,15.08877361,3.19e-05,53.2177,177.1612,109.1843,250.9183,-0.00051919,-8.549e-05,0.0,0 STARLINK-4542,1 53435U 22097AZ  23025.66928090 -.00008549  00000-0 -51919-3 0  9998,2 53435  53.2177 177.1612 0000319 109.1843 250.9183 15.08877361 26351,6917.766,95.435,539.852,539.411,0.0
53435.0,STARLINK-4542,PAYLOAD,2023-01-26 03:11:28,15.08839564,0.000104,53.2165,175.0784,94.0954,266.0157,1.2175999999999998e-05,-9.4e-07,0.0,0 STARLINK-4542,1 53435U 22097AZ  23026.13296418 -.00000094  00000-0  12176-4 0  9992,2 53435  53.2165 175.0784 0001040  94.0954 266.0157 15.08839564 26422,6917.882,95.438,540.466,539.0269999999999,0.0
53435.0,STARLINK-4542,PAYLOAD,2023-01-26 14:19:09,15.0884262,0.0001044,53.2163,172.9968,92.0045,268.1066,0.00010961,1.457e-05,0.0,0 STARLINK-4542,1 53435U 22097AZ  23026.59664020  .00001457  00000-0  10961-3 0  9992,2 53435  53.2163 172.9968 0001044  92.0045 268.1066 15.08842620 26950,6917.871999999999,95.437,540.46,539.015,0.0
53435.0,STARLINK-4542,PAYLOAD,2023-01-26 15:54:32,15.08845764,9.62e-05,53.2165,172.6996,91.4279,268.6823,6.734e-05,7.84e-06,0.0,0 STARLINK-4542,1 53435U 22097AZ  23026.66287935  .00000784  00000-0  67340-4 0  9992,2 53435  53.2165 172.6996 0000962  91.4279 268.6823 15.08845764 26509,6917.863,95.437,540.393,539.062,0.0
53435.0,STARLINK-4542,PAYLOAD,2023-01-27 14:09:54,15.08921678,0.0001585999999999,53.2171,168.5376,68.1965,291.9196,-0.0011401,-0.00018428,0.0,0 STARLINK-4542,1 53435U 22097AZ  23027.59021566 -.00018428  00000-0 -11401-2 0  9992,2 53435  53.2171 168.5376 0001586  68.1965 291.9196 15.08921678 26644,6917.630999999999,95.432,540.5930000000001,538.399,0.0
53435.0,STARLINK-4542,PAYLOAD,2023-01-27 15:45:20,15.08844275,0.0001279,53.2168,168.2416,86.8474,273.2665,2.706e-05,1.43e-06,0.0,0 STARLINK-4542,1 53435U 22097AZ  23027.65648269  .00000143  00000-0  27060-4 0  9997,2 53435  53.2168 168.2416 0001279  86.8474 273.2665 15.08844275 26655,6917.866999999999,95.437,540.617,538.8480000000001,0.0
53435.0,STARLINK-4542,PAYLOAD,2023-01-28 14:00:44,15.08841192,0.0001184,53.2168,164.0787,76.5838,283.5286,3.4938e-05,2.68e-06,0.0,0 STARLINK-4542,1 53435U 22097AZ  23028.58384422  .00000268  00000-0  34938-4 0  9998,2 53435  53.2168 164.0787 0001184  76.5838 283.5286 15.08841192 27250,6917.877,95.437,540.561,538.923,0.0
53435.0,STARLINK-4542,PAYLOAD,2023-01-28 18:46:53,15.0884203,0.0001216,53.2173,163.1863,88.3958,271.7174,5.1075e-05,5.25e-06,0.0,0 STARLINK-4542,1 53435U 22097AZ  23028.78256252  .00000525  00000-0  51075-4 0  9996,2 53435  53.2173 163.1863 0001216  88.3958 271.7174 15.08842030 26820,6917.874,95.437,540.58,538.898,0.0
53435.0,STARLINK-4542,PAYLOAD,2023-01-29 12:16:10,15.08819725,0.0002092,53.2157,159.9062,132.9956,227.1211,-0.00012264,-2.238e-05,0.0,0 STARLINK-4542,1 53435U 22097AZ  23029.51122883 -.00002238  00000-0 -12264-3 0  9991,2 53435  53.2157 159.9062 0002092 132.9956 227.1211 15.08819725 26937,6917.942,95.439,541.255,538.36,0.0
